#aV2014  8 16  0  0  0.00000000     288 DD+AD WGS84 FIT  NGA
## 1805 518400.00000000   300.00000000 56885 0.0000000000000
+   32     1  2  3  4  5  6  7  8  9 10 11 12 13 14 15 16 17
+         18 19 20 21 22 23 24 25 26 27 28 29 30 31 32  0  0
+          0  0  0  0  0  0  0  0  0  0  0  0  0  0  0  0  0
+          0  0  0  0  0  0  0  0  0  0  0  0  0  0  0  0  0
+          0  0  0  0  0  0  0  0  0  0  0  0  0  0  0  0  0
++         2  2  2  2  2  2  2  2  2  2  2  2  2  2  2  2  2
++         2  2  2  2  2  2  2  2  2  2  2  2  2  2  2  0  0
++         0  0  0  0  0  0  0  0  0  0  0  0  0  0  0  0  0
++         0  0  0  0  0  0  0  0  0  0  0  0  0  0  0  0  0
++         0  0  0  0  0  0  0  0  0  0  0  0  0  0  0  0  0
%c cc cc ccc ccc cccc cccc cccc cccc ccccc ccccc ccccc ccccc
%c cc cc ccc ccc cccc cccc cccc cccc ccccc ccccc ccccc ccccc
%f  0.0000000  0.000000000  0.00000000000  0.000000000000000
%f  0.0000000  0.000000000  0.00000000000  0.000000000000000
%i    0    0    0    0      0      0      0      0         0
%i    0    0    0    0      0      0      0      0         0
/*      NGA, ST. LOUIS,MO.                                  
/*   EPHEMERIS COMPUTED FROM  1 DAYS OF DATA                
/*   EPOCHA SMOOTHER                                       
/* CCCCCCCCCCCCCCCCCCCCCCCCCCCCCCCCCCCCCCCCCCCCCCCCCCCCCCCCC
*  2014  8 16  9 50  0.00000000
P  1 -22927.850684 -13567.368823   -442.712740     19.697650                    
V  1   1775.230796  -2055.742016 -31664.428105      0.006451                    
P  2   5081.533194  18412.467858  18949.097265    512.876355                    
V  2 -21211.694609  -9822.094142  14998.294500      0.021729                    
P  3  -6481.053649 -15004.172639 -21489.169588    404.556555                    
V  3  20583.742934 -16026.606292   5248.031544      0.049682                    
P  4 -22820.206635  -1486.970009  13372.016437     -0.041766                    
V  4 -13983.010940 -10813.721577 -24237.958161     -0.001613                    
P  5   2180.510492  26250.618712  -2619.665943   -348.838702                    
V  5  -3343.955721   3342.416220  31320.945075      0.034535                    
P  6  -8319.550841  12739.690597  21756.447993     -4.354653                    
V  6 -24025.264499 -13695.785827  -1178.720697     -0.010057                    
P  7 -23371.546968  -4454.730328 -12084.443894    380.732651                    
V  7 -12206.939156  -9437.557179  26555.871957      0.043158                    
P  8 -21448.111923  -3542.498509 -15481.008935     15.177160                    
V  8 -15246.675350 -12501.564227  23091.551572      0.000846                    
P  9  20356.520079   2109.647114 -17356.144808     16.043444                    
V  9 -17782.241414  12310.373904 -19370.558680      0.047342                    
P 10  -9079.986606  21275.108215  12315.567760   -138.079261                    
V 10  -3108.310152 -16410.339124  25769.815593     -0.016458                    
P 11 -20856.259295 -12986.819932 -10829.579187   -513.751669                    
V 11  13652.998154  -1386.917853 -25658.117625     -0.029645                    
P 12  10702.168229  17284.350027  17130.258942    225.303026                    
V 12  -1881.488100  21707.033541 -20425.228950      0.026063                    
P 13 -23722.493148   1872.707518  11855.462939    -31.562912                    
V 13  13064.522994  -7908.056625  26938.649864     -0.039200                    
P 14  21296.089602 -14756.517548   5690.355767    144.288718                    
V 14   7374.881577   -748.086171 -30939.932303     -0.036581                    
P 15  12477.822899  10460.385586 -21078.772320   -197.200344                    
V 15 -22205.438428  14814.859670  -5510.898047     -0.022192                    
P 16   -565.926499 -26196.969449  -2967.236436   -201.102978                    
V 16   2404.519907  -3602.048791  32306.625333      0.023717                    
P 17 -20985.826668  15254.111485   5346.739275   -116.883224                    
V 17  -6969.076136    715.472356 -31124.156081     -0.027572                    
P 18  15383.209131  -5037.609793 -20554.228313    338.419640                    
V 18   1422.520446  27334.600837  -5833.265091      0.024920                    
P 19  -8280.676746 -12831.261203 -21911.367846   -473.773458                    
V 19  24838.596396 -11565.599844  -2191.698700     -0.019710                    
P 20 -14645.926400 -12272.402603  18287.351168    222.635359                    
V 20    271.744916 -23782.562926 -15514.307420      0.043420                    
P 21  21926.669276   -203.206364 -14635.026559   -378.653857                    
V 21  15895.717688  11793.580517  22224.995712     -0.021377                    
P 22  10949.326305 -18815.854538 -14888.030820    259.341976                    
V 22   3321.309923  19409.725486 -21934.708395      0.034712                    
P 23 -18870.608991  -4375.943091  18477.914950    -44.909549                    
V 23  19333.435642 -12698.139882  16422.791439     -0.029632                    
P 24  21328.547022  15316.133327  -4358.311031    -33.592862                    
V 24  -6173.922904   -197.930971 -30949.445828     -0.006535                    
P 25  14672.109967   4238.039716  21665.017457     23.542733                    
V 25    -81.325811  27635.197431  -5203.000403     -0.006467                    
P 26   -676.467153  16386.864084 -21491.293338    -21.606056                    
V 26 -23731.605626  10150.597812   9034.588049     -0.130304                    
P 27   3358.212264 -17697.270380 -19511.406375      6.513318                    
V 27  21957.565912 -11497.420855  14283.031993      0.031922                    
P 28 -12470.456326  14785.525859 -17537.854520    377.532756                    
V 28    -47.517381 -23524.188371 -19270.421939      0.027591                    
P 29  23567.767698  -3060.324554  11842.675829    553.992375                    
V 29 -12329.433746   8798.734117  26915.477380      0.025181                    
P 30 -17734.245051   4366.167889 -19304.768858    -49.153071                    
V 30 -19559.384292 -14804.196184  14575.714912     -0.054462                    
P 31   6944.999594 -13210.511396  22112.165415    332.661464                    
V 31  23733.734725  14228.280567   1354.420801     -0.003457                    
P 32  -5979.473754 -23803.957575  10857.094466   -361.715858                    
V 32   3429.700861 -13336.417372 -26915.977659      0.084234                    
EOF
